{
  "type": "FeatureCollection",
  "features": [
    {
      "type": "Feature",
      "properties": {
        "norad_id": 66471,
        "name": "STARLINK-35569",
        "group": "last-30-days",
        "lat": -10.838614601483705,
        "lon": 72.79877673306495,
        "alt_km": 415.07719050464584,
        "timestamp": "2025-12-10T09:57:43.488319+00:00",
        "meta_object_name": "STARLINK-35569",
        "meta_object_id": "2025-262R",
        "meta_epoch": "2025-12-09T18:34:20.972640",
        "meta_mean_motion": 15.50616852,
        "meta_eccentricity": 0.0001386,
        "meta_inclination": 43.0004,
        "meta_ra_of_asc_node": 88.4074,
        "meta_arg_of_pericenter": 276.4784,
        "meta_mean_anomaly": 83.5918,
        "meta_ephemeris_type": 0,
        "meta_classification_type": "U",
        "meta_norad_cat_id": 66471,
        "meta_element_set_no": 999,
        "meta_rev_at_epoch": 510,
        "meta_bstar": 0.0022405,
        "meta_mean_motion_dot": 0.0013354,
        "meta_mean_motion_ddot": 0,
        "tle_line1": "1 66471U 25262R   25343.77385385  .00133540  00000+0  22405-2 0  9994",
        "tle_line2": "2 66471  43.0004  88.4074 0001386 276.4784  83.5918 15.50616852  5103"
      },
      "geometry": {
        "type": "Point",
        "coordinates": [
          72.79877673306495,
          -10.838614601483705
        ]
      }
    },
    {
      "type": "Feature",
      "properties": {
        "norad_id": 66472,
        "name": "STARLINK-35567",
        "group": "last-30-days",
        "lat": -8.220826431789812,
        "lon": 75.72604475180486,
        "alt_km": 414.7522359592349,
        "timestamp": "2025-12-10T09:57:43.488329+00:00",
        "meta_object_name": "STARLINK-35567",
        "meta_object_id": "2025-262S",
        "meta_epoch": "2025-12-09T18:33:21.417120",
        "meta_mean_motion": 15.50631754,
        "meta_eccentricity": 0.0001643,
        "meta_inclination": 43,
        "meta_ra_of_asc_node": 88.4016,
        "meta_arg_of_pericenter": 273.031,
        "meta_mean_anomaly": 87.0362,
        "meta_ephemeris_type": 0,
        "meta_classification_type": "U",
        "meta_norad_cat_id": 66472,
        "meta_element_set_no": 999,
        "meta_rev_at_epoch": 510,
        "meta_bstar": 0.0024348,
        "meta_mean_motion_dot": 0.00145454,
        "meta_mean_motion_ddot": 0,
        "tle_line1": "1 66472U 25262S   25343.77316455  .00145454  00000+0  24348-2 0  9992",
        "tle_line2": "2 66472  43.0000  88.4016 0001643 273.0310  87.0362 15.50631754  5100"
      },
      "geometry": {
        "type": "Point",
        "coordinates": [
          75.72604475180486,
          -8.220826431789812
        ]
      }
    },
    {
      "type": "Feature",
      "properties": {
        "norad_id": 66473,
        "name": "STARLINK-35568",
        "group": "last-30-days",
        "lat": -6.944761178096745,
        "lon": 77.1297970990753,
        "alt_km": 414.75289621589945,
        "timestamp": "2025-12-10T09:57:43.488339+00:00",
        "meta_object_name": "STARLINK-35568",
        "meta_object_id": "2025-262T",
        "meta_epoch": "2025-12-09T18:32:51.863136",
        "meta_mean_motion": 15.50626497,
        "meta_eccentricity": 0.0001547,
        "meta_inclination": 43.0003,
        "meta_ra_of_asc_node": 88.399,
        "meta_arg_of_pericenter": 269.7405,
        "meta_mean_anomaly": 90.3278,
        "meta_ephemeris_type": 0,
        "meta_classification_type": "U",
        "meta_norad_cat_id": 66473,
        "meta_element_set_no": 999,
        "meta_rev_at_epoch": 510,
        "meta_bstar": 0.0023372,
        "meta_mean_motion_dot": 0.00139474,
        "meta_mean_motion_ddot": 0,
        "tle_line1": "1 66473U 25262T   25343.77282249  .00139474  00000+0  23372-2 0  9997",
        "tle_line2": "2 66473  43.0003  88.3990 0001547 269.7405  90.3278 15.50626497  5105"
      },
      "geometry": {
        "type": "Point",
        "coordinates": [
          77.1297970990753,
          -6.944761178096745
        ]
      }
    },
    {
      "type": "Feature",
      "properties": {
        "norad_id": 66474,
        "name": "STARLINK-35620",
        "group": "last-30-days",
        "lat": -5.684443920269432,
        "lon": 78.50347929230448,
        "alt_km": 414.8511844160621,
        "timestamp": "2025-12-10T09:57:43.488349+00:00",
        "meta_object_name": "STARLINK-35620",
        "meta_object_id": "2025-262U",
        "meta_epoch": "2025-12-09T18:32:22.335072",
        "meta_mean_motion": 15.50612427,
        "meta_eccentricity": 0.0001343,
        "meta_inclination": 43.0002,
        "meta_ra_of_asc_node": 88.3957,
        "meta_arg_of_pericenter": 262.982,
        "meta_mean_anomaly": 97.0887,
        "meta_ephemeris_type": 0,
        "meta_classification_type": "U",
        "meta_norad_cat_id": 66474,
        "meta_element_set_no": 999,
        "meta_rev_at_epoch": 510,
        "meta_bstar": 0.0021552,
        "meta_mean_motion_dot": 0.0012834,
        "meta_mean_motion_ddot": 0,
        "tle_line1": "1 66474U 25262U   25343.77248073  .00128340  00000+0  21552-2 0  9993",
        "tle_line2": "2 66474  43.0002  88.3957 0001343 262.9820  97.0887 15.50612427  5106"
      },
      "geometry": {
        "type": "Point",
        "coordinates": [
          78.50347929230448,
          -5.684443920269432
        ]
      }
    },
    {
      "type": "Feature",
      "properties": {
        "norad_id": 66475,
        "name": "STARLINK-35538",
        "group": "last-30-days",
        "lat": -4.358575859707759,
        "lon": 79.93964184146087,
        "alt_km": 414.48025843284813,
        "timestamp": "2025-12-10T09:57:43.488359+00:00",
        "meta_object_name": "STARLINK-35538",
        "meta_object_id": "2025-262V",
        "meta_epoch": "2025-12-09T18:31:52.681728",
        "meta_mean_motion": 15.50621221,
        "meta_eccentricity": 0.0001445,
        "meta_inclination": 43.0003,
        "meta_ra_of_asc_node": 88.3936,
        "meta_arg_of_pericenter": 273.5601,
        "meta_mean_anomaly": 86.5094,
        "meta_ephemeris_type": 0,
        "meta_classification_type": "U",
        "meta_norad_cat_id": 66475,
        "meta_element_set_no": 999,
        "meta_rev_at_epoch": 510,
        "meta_bstar": 0.0023305,
        "meta_mean_motion_dot": 0.00139042,
        "meta_mean_motion_ddot": 0,
        "tle_line1": "1 66475U 25262V   25343.77213752  .00139042  00000+0  23305-2 0  9999",
        "tle_line2": "2 66475  43.0003  88.3936 0001445 273.5601  86.5094 15.50621221  5108"
      },
      "geometry": {
        "type": "Point",
        "coordinates": [
          79.93964184146087,
          -4.358575859707759
        ]
      }
    },
    {
      "type": "Feature",
      "properties": {
        "norad_id": 66476,
        "name": "STARLINK-35372",
        "group": "last-30-days",
        "lat": -3.1342927437402963,
        "lon": 81.25731417480505,
        "alt_km": 414.61793343564386,
        "timestamp": "2025-12-10T09:57:43.488369+00:00",
        "meta_object_name": "STARLINK-35372",
        "meta_object_id": "2025-262W",
        "meta_epoch": "2025-12-09T18:31:23.042208",
        "meta_mean_motion": 15.50602301,
        "meta_eccentricity": 0.0001427,
        "meta_inclination": 43.0003,
        "meta_ra_of_asc_node": 88.3902,
        "meta_arg_of_pericenter": 272.5398,
        "meta_mean_anomaly": 87.5299,
        "meta_ephemeris_type": 0,
        "meta_classification_type": "U",
        "meta_norad_cat_id": 66476,
        "meta_element_set_no": 999,
        "meta_rev_at_epoch": 499,
        "meta_bstar": 0.0014968,
        "meta_mean_motion_dot": 0.00088544,
        "meta_mean_motion_ddot": 0,
        "tle_line1": "1 66476U 25262W   25343.77179447  .00088544  00000+0  14968-2 0  9997",
        "tle_line2": "2 66476  43.0003  88.3902 0001427 272.5398  87.5299 15.50602301  4996"
      },
      "geometry": {
        "type": "Point",
        "coordinates": [
          81.25731417480505,
          -3.1342927437402963
        ]
      }
    },
    {
      "type": "Feature",
      "properties": {
        "norad_id": 66477,
        "name": "STARLINK-35354",
        "group": "last-30-days",
        "lat": -0.46458596133702995,
        "lon": 84.11677383266388,
        "alt_km": 414.63150747188865,
        "timestamp": "2025-12-10T09:57:43.488382+00:00",
        "meta_object_name": "STARLINK-35354",
        "meta_object_id": "2025-262X",
        "meta_epoch": "2025-12-09T16:57:38.372832",
        "meta_mean_motion": 15.50612558,
        "meta_eccentricity": 0.0001281,
        "meta_inclination": 43.0007,
        "meta_ra_of_asc_node": 88.7605,
        "meta_arg_of_pericenter": 244.4976,
        "meta_mean_anomaly": 115.5752,
        "meta_ephemeris_type": 0,
        "meta_classification_type": "U",
        "meta_norad_cat_id": 66477,
        "meta_element_set_no": 999,
        "meta_rev_at_epoch": 509,
        "meta_bstar": 0.001749,
        "meta_mean_motion_dot": 0.00103756,
        "meta_mean_motion_ddot": 0,
        "tle_line1": "1 66477U 25262X   25343.70669413  .00103756  00000+0  17490-2 0  9994",
        "tle_line2": "2 66477  43.0007  88.7605 0001281 244.4976 115.5752 15.50612558  5096"
      },
      "geometry": {
        "type": "Point",
        "coordinates": [
          84.11677383266388,
          -0.46458596133702995
        ]
      }
    }
  ]
}